     2.100          NAVIGATION                              RINEX VERSION / TYPE
fic2rin                                 04/01/2011 00:09:54 PGM / RUN BY / DATE
                                                            END OF HEADER
10 11  3 31  6  0  0.0 -.702994875610D-04 -.102318153949D-11  .000000000000D+00
     .880000000000D+02  .990625000000D+01  .502949521295D-08 -.233587385441D+01
     .461935997009D-06  .101228805725D-01  .370107591152D-05  .515358761978D+04
     .367200000000D+06  .819563865662D-07  .120298778826D+01 -.106170773506D-06
     .949555687206D+00  .302937500000D+03  .704529504653D+00 -.837677749783D-08
     .111076055335D-09  .100000000000D+01  .162900000000D+04  .000000000000D+00
     .340000000000D+01  .000000000000D+00 -.279396772385D-08  .880000000000D+02
     .360006000000D+06  .400000000000D+01
11 11  3 31  6  0  0.0 -.138804782182D-03 -.306954461848D-11  .000000000000D+00
     .105000000000D+03  .148750000000D+02  .612739808787D-08  .385432055158D+00
     .101700425148D-05  .116666993126D-01  .107139348984D-04  .515350707436D+04
     .367200000000D+06 -.838190317154D-07 -.116607460689D+00  .137835741043D-06
     .888487038034D+00  .133718750000D+03  .917747942171D+00 -.891894293834D-08
     .332156692802D-10  .100000000000D+01  .162900000000D+04  .000000000000D+00
     .340000000000D+01  .000000000000D+00 -.116415321827D-07  .105000000000D+03
     .360006000000D+06  .400000000000D+01
12 11  3 31  6  0  0.0 -.152941793203D-04  .284217094304D-11  .000000000000D+00
     .930000000000D+02 -.368750000000D+01  .475805533496D-08  .280781979216D+00
    -.204890966415D-06  .370567664504D-02  .367872416973D-05  .515377111435D+04
     .367200000000D+06  .428408384323D-07 -.194507226816D+01 -.521540641785D-07
     .974190785859D+00  .317937500000D+03 -.251172746970D+00 -.834106172442D-08
     .575023952056D-10  .100000000000D+01  .162900000000D+04  .000000000000D+00
     .240000000000D+01  .000000000000D+00 -.121071934700D-07  .930000000000D+02
     .360006000000D+06  .400000000000D+01
13 11  3 31  6  0  0.0  .276987906545D-03 -.147792889038D-11  .000000000000D+00
     .660000000000D+02 -.512812500000D+02  .370694012322D-08  .276716624671D+01
    -.258348882198D-05  .465363950934D-02  .968761742115D-05  .515362315750D+04
     .367200000000D+06 -.372529029846D-08  .230825967377D+01  .167638063431D-07
     .990140816368D+00  .207687500000D+03  .180109544032D+01 -.756531512574D-08
    -.337871216549D-09  .100000000000D+01  .162900000000D+04  .000000000000D+00
     .240000000000D+01  .000000000000D+00 -.111758708954D-07  .660000000000D+02
     .360006000000D+06  .400000000000D+01
14 11  3 31  6  0  0.0  .140950083733D-03  .238742359215D-11  .000000000000D+00
     .250000000000D+02 -.425312500000D+02  .376944272671D-08  .275098096581D+01
    -.215508043766D-05  .561868422665D-02  .102370977402D-04  .515364929581D+04
     .367200000000D+06  .502914190292D-07  .228443587144D+01 -.689178705215D-07
     .983191772627D+00  .192468750000D+03 -.209306262931D+01 -.759745932182D-08
    -.313227332890D-09  .100000000000D+01  .162900000000D+04  .000000000000D+00
     .240000000000D+01  .000000000000D+00 -.884756445885D-08  .250000000000D+02
     .360006000000D+06  .400000000000D+01
15 11  3 31  6  0  0.0 -.139002688229D-03  .306954461848D-11  .000000000000D+00
     .350000000000D+02 -.435000000000D+02  .471269630272D-08  .235242665398D+01
    -.225193798542D-05  .340047921054D-02  .890716910362D-05  .515359249878D+04
     .367200000000D+06 -.745058059692D-08  .221048213534D+01  .577419996262D-07
     .950371514194D+00  .202468750000D+03 -.673512854514D-01 -.813926760459D-08
    -.350371737246D-09  .100000000000D+01  .162900000000D+04  .000000000000D+00
     .240000000000D+01  .000000000000D+00 -.977888703346D-08  .350000000000D+02
     .360006000000D+06  .400000000000D+01
16 11  3 31  6  0  0.0 -.161648262292D-03 -.272848410532D-11  .000000000000D+00
     .400000000000D+02 -.100000000000D+01  .470626746350D-08 -.208562282483D+01
    -.141561031342D-06  .631280848756D-02  .386871397495D-05  .515376975822D+04
     .367200000000D+06 -.104308128357D-06 -.192729200864D+01 -.949949026108D-07
     .975224559846D+00  .315781250000D+03 -.152336535691D+00 -.829248827256D-08
     .106075847056D-09  .100000000000D+01  .162900000000D+04  .000000000000D+00
     .240000000000D+01  .000000000000D+00 -.977888703346D-08  .400000000000D+02
     .360006000000D+06  .400000000000D+01
17 11  3 31  6  0  0.0  .184190459549D-03  .113686837722D-12  .000000000000D+00
     .120000000000D+02 -.724687500000D+02  .445304262996D-08  .311524291547D+01
    -.374764204025D-05  .623629614711D-02  .907666981220D-05  .515374185753D+04
     .367200000000D+06 -.502914190292D-07 -.884128478426D+00 -.106170773506D-06
     .961023431809D+00  .202343750000D+03 -.241662515933D+01 -.794390232399D-08
    -.371801201298D-09  .100000000000D+01  .162900000000D+04  .000000000000D+00
     .240000000000D+01  .000000000000D+00 -.102445483208D-07  .120000000000D+02
     .360006000000D+06  .400000000000D+01
18 11  3 31  6  0  0.0  .129340216517D-03  .204636307899D-11  .000000000000D+00
     .550000000000D+02  .803125000000D+01  .539558189050D-08 -.180797140106D+01
     .385567545891D-06  .120506279636D-01  .353157520294D-05  .515376490211D+04
     .367200000000D+06  .182539224625D-06  .119828724961D+01 -.165775418282D-06
     .933471771898D+00  .296156250000D+03 -.226909631226D+01 -.849178228825D-08
     .464305054455D-10  .100000000000D+01  .162900000000D+04  .000000000000D+00
     .240000000000D+01  .000000000000D+00 -.107102096081D-07  .550000000000D+02
     .360006000000D+06  .400000000000D+01
20 11  3 31  6  0  0.0  .488078221679D-04  .113686837722D-12  .000000000000D+00
     .280000000000D+02  .244062500000D+02  .550665794584D-08 -.142446741049D+01
     .127404928207D-05  .469705241267D-02  .362657010555D-05  .515369081306D+04
     .367200000000D+06  .745058059692D-07  .114432979548D+01  .130385160446D-06
     .933625466071D+00  .294875000000D+03  .128436448042D+01 -.871679166079D-08
     .357157734196D-10  .100000000000D+01  .162900000000D+04  .000000000000D+00
     .240000000000D+01  .000000000000D+00 -.791624188423D-08  .280000000000D+02
     .360006000000D+06  .400000000000D+01
21 11  3 31  6  0  0.0 -.134141184390D-03 -.261479726760D-11  .000000000000D+00
     .790000000000D+02  .530937500000D+02  .518593030053D-08 -.530010522689D+00
     .280514359474D-05  .175482217455D-01  .949017703533D-05  .515377828598D+04
     .367200000000D+06  .800937414169D-07  .143776424157D+00  .309199094772D-06
     .932340567567D+00  .181468750000D+03 -.238781134929D+01 -.863750264380D-08
     .223937899341D-09  .100000000000D+01  .162900000000D+04  .000000000000D+00
     .240000000000D+01  .000000000000D+00 -.116415321827D-07  .790000000000D+02
     .360006000000D+06  .400000000000D+01
22 11  3 31  6  0  0.0  .150944106281D-03 -.795807864051D-12  .000000000000D+00
     .330000000000D+02  .102187500000D+02  .546772775281D-08 -.259891949675D+01
     .458210706711D-06  .544638303109D-02  .366568565369D-05  .515370202637D+04
     .367200000000D+06 -.111758708954D-07  .120253598650D+01 -.447034835815D-07
     .931164384357D+00  .293625000000D+03 -.196862089705D+01 -.855214194533D-08
     .164292557730D-10  .100000000000D+01  .162900000000D+04  .000000000000D+00
     .240000000000D+01  .000000000000D+00 -.172294676304D-07  .330000000000D+02
     .360006000000D+06  .400000000000D+01
23 11  3 31  6  0  0.0  .316545832902D-03 -.250111042988D-11  .000000000000D+00
     .105000000000D+03 -.570312500000D+02  .433196615806D-08  .200809839827D+01
    -.283494591713D-05  .708005845081D-02  .938773155212D-05  .515357650757D+04
     .367200000000D+06 -.633299350739D-07  .223998471501D+01  .726431608200D-07
     .964848845553D+00  .201093750000D+03  .313145812475D+01 -.797354641593D-08
    -.439304013061D-09  .100000000000D+01  .162900000000D+04  .000000000000D+00
     .240000000000D+01  .000000000000D+00 -.200234353542D-07  .105000000000D+03
     .360006000000D+06  .400000000000D+01
24 11  3 31  6  0  0.0  .377706717700D-03  .306954461848D-11  .000000000000D+00
     .600000000000D+02  .435000000000D+02  .473734018638D-08  .128288158766D+01
     .237859785557D-05  .598043936770D-02  .970624387264D-05  .515372613335D+04
     .367200000000D+06  .763684511185D-07  .187565788639D+00  .372529029846D-07
     .948933473037D+00  .181468750000D+03 -.299522755639D+00 -.811748098281D-08
     .193222334200D-09  .100000000000D+01  .162900000000D+04  .000000000000D+00
     .240000000000D+01  .000000000000D+00 -.139698386192D-08  .600000000000D+02
     .360006000000D+06  .400000000000D+01
25 11  3 31  6  0  0.0 -.943895429373D-06 -.341060513165D-12  .000000000000D+00
     .102000000000D+03  .250000000000D+00  .496413534759D-08 -.141706244248D+01
     .745058059692D-08  .566319096833D-03  .358559191227D-05  .515367188644D+04
     .367200000000D+06 -.149011611938D-07 -.197424276542D+01 -.745058059692D-08
     .962978389218D+00  .313531250000D+03  .847226200178D+00 -.843642283945D-08
     .789318592573D-10  .100000000000D+01  .162900000000D+04  .000000000000D+00
     .240000000000D+01  .000000000000D+00  .465661287308D-08  .102000000000D+03
     .360006000000D+06  .400000000000D+01
26 11  3 31  6  0  0.0 -.159525778145D-03 -.102318153949D-10  .000000000000D+00
     .780000000000D+02 -.491250000000D+02  .373837000383D-08  .167670459421D+01
    -.275112688541D-05  .204394842731D-01  .982545316219D-05  .515365216637D+04
     .367200000000D+06 -.314787030220D-06  .230371149803D+01 -.353902578354D-06
     .987780357085D+00  .208875000000D+03  .113198058129D+01 -.775389440940D-08
    -.298226708054D-09  .100000000000D+01  .162900000000D+04  .000000000000D+00
     .240000000000D+01  .000000000000D+00 -.651925802231D-08  .780000000000D+02
     .360006000000D+06  .400000000000D+01
